{
  "type": "FeatureCollection",
  "features": [
    {
      "type": "Feature",
      "properties": {
        "norad_id": 37781,
        "name": "HAIYANG-2A",
        "group": "resource",
        "lat": -51.014784476292455,
        "lon": -6.999805999181457,
        "alt_km": 975.8519134242524,
        "timestamp": "2025-12-06T05:40:08.893132+00:00",
        "meta_object_name": "HAIYANG-2A",
        "meta_object_id": "2011-043A",
        "meta_epoch": "2025-12-05T07:16:51.472128",
        "meta_mean_motion": 13.78834461,
        "meta_eccentricity": 0.0001649,
        "meta_inclination": 99.3377,
        "meta_ra_of_asc_node": 340.3525,
        "meta_arg_of_pericenter": 94.7219,
        "meta_mean_anomaly": 265.4121,
        "meta_ephemeris_type": 0,
        "meta_classification_type": "U",
        "meta_norad_cat_id": 37781,
        "meta_element_set_no": 999,
        "meta_rev_at_epoch": 71996,
        "meta_bstar": 5.9933426e-05,
        "meta_mean_motion_dot": 1.7e-07,
        "meta_mean_motion_ddot": 0,
        "tle_line1": "1 37781U 11043A   25339.30337352  .00000017  00000+0  59933-4 0  9993",
        "tle_line2": "2 37781  99.3377 340.3525 0001649  94.7219 265.4121 13.78834461719968"
      },
      "geometry": {
        "type": "Point",
        "coordinates": [
          -6.999805999181457,
          -51.014784476292455
        ]
      }
    },
    {
      "type": "Feature",
      "properties": {
        "norad_id": 37791,
        "name": "RASAT",
        "group": "resource",
        "lat": 36.35401630931991,
        "lon": -104.41878767830822,
        "alt_km": 657.1948591637056,
        "timestamp": "2025-12-06T05:40:08.893142+00:00",
        "meta_object_name": "RASAT",
        "meta_object_id": "2011-044D",
        "meta_epoch": "2025-12-05T06:29:56.904864",
        "meta_mean_motion": 14.67893289,
        "meta_eccentricity": 0.00219475,
        "meta_inclination": 98.0655,
        "meta_ra_of_asc_node": 68.6394,
        "meta_arg_of_pericenter": 87.5241,
        "meta_mean_anomaly": 356.7864,
        "meta_ephemeris_type": 0,
        "meta_classification_type": "U",
        "meta_norad_cat_id": 37791,
        "meta_element_set_no": 999,
        "meta_rev_at_epoch": 76473,
        "meta_bstar": 0.00022826419,
        "meta_mean_motion_dot": 1.261e-05,
        "meta_mean_motion_ddot": 0,
        "tle_line1": "1 37791U 11044D   25339.27079751  .00001261  00000+0  22826-3 0  9999",
        "tle_line2": "2 37791  98.0655  68.6394 0021947  87.5241 356.7864 14.67893289764731"
      },
      "geometry": {
        "type": "Point",
        "coordinates": [
          -104.41878767830822,
          36.35401630931991
        ]
      }
    },
    {
      "type": "Feature",
      "properties": {
        "norad_id": 37841,
        "name": "SRMSAT",
        "group": "resource",
        "lat": 19.308682416293692,
        "lon": -137.92394151398634,
        "alt_km": 857.2876221987972,
        "timestamp": "2025-12-06T05:40:08.893153+00:00",
        "meta_object_name": "SRMSAT",
        "meta_object_id": "2011-058D",
        "meta_epoch": "2025-12-04T16:21:06.385824",
        "meta_mean_motion": 14.11507205,
        "meta_eccentricity": 0.0011717,
        "meta_inclination": 19.9698,
        "meta_ra_of_asc_node": 156.7245,
        "meta_arg_of_pericenter": 224.0627,
        "meta_mean_anomaly": 213.4569,
        "meta_ephemeris_type": 0,
        "meta_classification_type": "U",
        "meta_norad_cat_id": 37841,
        "meta_element_set_no": 999,
        "meta_rev_at_epoch": 73030,
        "meta_bstar": 0.00015376,
        "meta_mean_motion_dot": 5.48e-06,
        "meta_mean_motion_ddot": 0,
        "tle_line1": "1 37841U 11058D   25338.68132391  .00000548  00000+0  15376-3 0  9993",
        "tle_line2": "2 37841  19.9698 156.7245 0011717 224.0627 213.4569 14.11507205730306"
      },
      "geometry": {
        "type": "Point",
        "coordinates": [
          -137.92394151398634,
          19.308682416293692
        ]
      }
    },
    {
      "type": "Feature",
      "properties": {
        "norad_id": 38012,
        "name": "PLEIADES 1A",
        "group": "resource",
        "lat": 23.12891970068815,
        "lon": -123.37124643865953,
        "alt_km": 697.2336137190332,
        "timestamp": "2025-12-06T05:40:08.893164+00:00",
        "meta_object_name": "PLEIADES 1A",
        "meta_object_id": "2011-076F",
        "meta_epoch": "2025-12-05T06:19:31.482912",
        "meta_mean_motion": 14.58550333,
        "meta_eccentricity": 0.0001381,
        "meta_inclination": 98.1832,
        "meta_ra_of_asc_node": 52.1473,
        "meta_arg_of_pericenter": 80.4562,
        "meta_mean_anomaly": 11.8659,
        "meta_ephemeris_type": 0,
        "meta_classification_type": "U",
        "meta_norad_cat_id": 38012,
        "meta_element_set_no": 999,
        "meta_rev_at_epoch": 74372,
        "meta_bstar": 0.00019350762,
        "meta_mean_motion_dot": 8.54e-06,
        "meta_mean_motion_ddot": 0,
        "tle_line1": "1 38012U 11076F   25339.26355883  .00000854  00000+0  19351-3 0  9999",
        "tle_line2": "2 38012  98.1832  52.1473 0001381  80.4562  11.8659 14.58550333743727"
      },
      "geometry": {
        "type": "Point",
        "coordinates": [
          -123.37124643865953,
          23.12891970068815
        ]
      }
    },
    {
      "type": "Feature",
      "properties": {
        "norad_id": 38038,
        "name": "ZIYUAN 1-02C (ZY 1-02C)",
        "group": "resource",
        "lat": -4.733279902110844,
        "lon": -134.33433345834896,
        "alt_km": 764.3360535587972,
        "timestamp": "2025-12-06T05:40:08.893174+00:00",
        "meta_object_name": "ZIYUAN 1-02C (ZY 1-02C)",
        "meta_object_id": "2011-079A",
        "meta_epoch": "2025-12-05T07:30:42.596064",
        "meta_mean_motion": 14.37999415,
        "meta_eccentricity": 0.0006867,
        "meta_inclination": 98.4344,
        "meta_ra_of_asc_node": 45.4634,
        "meta_arg_of_pericenter": 159.059,
        "meta_mean_anomaly": 288.9981,
        "meta_ephemeris_type": 0,
        "meta_classification_type": "U",
        "meta_norad_cat_id": 38038,
        "meta_element_set_no": 999,
        "meta_rev_at_epoch": 73134,
        "meta_bstar": 0.00033786436,
        "meta_mean_motion_dot": 9.79e-06,
        "meta_mean_motion_ddot": 0,
        "tle_line1": "1 38038U 11079A   25339.31299301  .00000979  00000+0  33786-3 0  9994",
        "tle_line2": "2 38038  98.4344  45.4634 0006867 159.0590 288.9981 14.37999415731343"
      },
      "geometry": {
        "type": "Point",
        "coordinates": [
          -134.33433345834896,
          -4.733279902110844
        ]
      }
    },
    {
      "type": "Feature",
      "properties": {
        "norad_id": 38046,
        "name": "ZIYUAN 3-1 (ZY 3-1)",
        "group": "resource",
        "lat": -3.102569628389213,
        "lon": -133.88342425521404,
        "alt_km": 371.3911220995715,
        "timestamp": "2025-12-06T05:40:08.893185+00:00",
        "meta_object_name": "ZIYUAN 3-1 (ZY 3-1)",
        "meta_object_id": "2012-001A",
        "meta_epoch": "2025-12-05T07:26:16.389024",
        "meta_mean_motion": 15.67184414,
        "meta_eccentricity": 0.00020633,
        "meta_inclination": 97.1772,
        "meta_ra_of_asc_node": 45.5614,
        "meta_arg_of_pericenter": 24.1219,
        "meta_mean_anomaly": 336.0138,
        "meta_ephemeris_type": 0,
        "meta_classification_type": "U",
        "meta_norad_cat_id": 38046,
        "meta_element_set_no": 999,
        "meta_rev_at_epoch": 77380,
        "meta_bstar": 0.000860306,
        "meta_mean_motion_dot": 0.00092785,
        "meta_mean_motion_ddot": 0,
        "tle_line1": "1 38046U 12001A   25339.30991191  .00092785  00000+0  86031-3 0  9991",
        "tle_line2": "2 38046  97.1772  45.5614 0002063  24.1219 336.0138 15.67184414773801"
      },
      "geometry": {
        "type": "Point",
        "coordinates": [
          -133.88342425521404,
          -3.102569628389213
        ]
      }
    },
    {
      "type": "Feature",
      "properties": {
        "norad_id": 38338,
        "name": "ARIRANG-3 (KOMPSAT-3)",
        "group": "resource",
        "lat": -19.724150688085846,
        "lon": -62.21164735273935,
        "alt_km": 688.9216871764638,
        "timestamp": "2025-12-06T05:40:08.893195+00:00",
        "meta_object_name": "ARIRANG-3 (KOMPSAT-3)",
        "meta_object_id": "2012-025B",
        "meta_epoch": "2025-12-05T06:45:34.199712",
        "meta_mean_motion": 14.61697087,
        "meta_eccentricity": 0.00058894,
        "meta_inclination": 98.3311,
        "meta_ra_of_asc_node": 293.8153,
        "meta_arg_of_pericenter": 2.596,
        "meta_mean_anomaly": 357.527,
        "meta_ephemeris_type": 0,
        "meta_classification_type": "U",
        "meta_norad_cat_id": 38338,
        "meta_element_set_no": 999,
        "meta_rev_at_epoch": 72301,
        "meta_bstar": 0.0002405777,
        "meta_mean_motion_dot": 1.15e-05,
        "meta_mean_motion_ddot": 0,
        "tle_line1": "1 38338U 12025B   25339.28164583  .00001150  00000+0  24058-3 0  9992",
        "tle_line2": "2 38338  98.3311 293.8153 0005889   2.5960 357.5270 14.61697087723016"
      },
      "geometry": {
        "type": "Point",
        "coordinates": [
          -62.21164735273935,
          -19.724150688085846
        ]
      }
    }
  ]
}